*******************************************************************************
JPL/HORIZONS                51 Nemausa (A858 BA)           2020-Jun-20 08:01:59
Rec #:      51 (+COV) Soln.date: 2020-Feb-22_15:15:48   # obs: 5473 (1863-2020)
 
IAU76/J2000 helio. ecliptic osc. elements (au, days, deg., period=Julian yrs):
 
  EPOCH=  2451798.5 ! 2000-Sep-11.00 (TDB)         Residual RMS= .28946
   EC= .06682735975566652  QR= 2.207844128765652   TP= 2451604.1684352728
   OM= 176.2118809055151   W=  3.280560983221368   IN= 9.966767580347994
   A= 2.365954629989548    MA= 52.63053722242496   ADIST= 2.524065131213445
   PER= 3.6393             N= .270828549           ANGMOM= .026400534
   DAN= 2.20807            DDN= 2.52377            L= 179.4430384
   B= .5674886             MOID= 1.21300006        TP= 2000-Feb-29.6684352728
 
Asteroid physical parameters (km, seconds, rotational period in hours):
   GM= n.a.                RAD= 69.0795            ROTPER= 7.783
   H= 7.6                  G= .080                 B-V= .789
                           ALBEDO= .100            STYP= Ch
 
ASTEROID comments: 
1: soln ref.= JPL#119, OCC=0
2: source=ORB
*******************************************************************************
 
 
*******************************************************************************
Ephemeris / WWW_USER Sat Jun 20 08:01:59 2020 Pasadena, USA      / Horizons
*******************************************************************************
Target body name: 51 Nemausa (A858 BA)            {source: JPL#119}
Center body name: Solar System Barycenter (0)     {source: DE431}
Center-site name: BODY CENTER
*******************************************************************************
Start time      : A.D. 1969-Jun-28 00:00:00.0000 TDB
Stop  time      : A.D. 2071-May-04 00:00:00.0000 TDB
Step-size       : 7200 minutes
*******************************************************************************
Center geodetic : 0.00000000,0.00000000,0.0000000 {E-lon(deg),Lat(deg),Alt(km)}
Center cylindric: 0.00000000,0.00000000,0.0000000 {E-lon(deg),Dxy(km),Dz(km)}
Center radii    : (undefined)                                                  
Small perturbers: Yes                             {source: SB431-N16}
Output units    : AU-D
Output type     : GEOMETRIC cartesian states
Output format   : 2 (position and velocity)
Reference frame : Ecliptic of J2000.0
*******************************************************************************
Initial IAU76/J2000 heliocentric ecliptic osculating elements (au, days, deg.):
  EPOCH=  2451798.5 ! 2000-Sep-11.00 (TDB)         Residual RMS= .28946        
   EC= .06682735975566652  QR= 2.207844128765652   TP= 2451604.1684352728      
   OM= 176.2118809055151   W=  3.280560983221368   IN= 9.966767580347994       
  Equivalent ICRF heliocentric equatorial cartesian coordinates (au, au/d):
   X=-1.187085581968998E+00  Y=-1.892649662043386E+00  Z=-4.402104118503561E-01
  VX= 9.558210889570788E-03 VY=-6.385152525249000E-03 VZ=-1.644621387927770E-03
Asteroid physical parameters (km, seconds, rotational period in hours):        
   GM= n.a.                RAD= 69.0795            ROTPER= 7.783               
   H= 7.6                  G= .080                 B-V= .789                   
                           ALBEDO= .100            STYP= Ch                    
*******************************************************************************
            JDTDB,            Calendar Date (TDB),        delta-T,                      X,                      Y,                      Z,                     VX,                     VY,                     VZ,
******************************************************************************************************************************************************************************************************************
$$SOE
2445720.500000000, A.D. 1984-Jan-21 00:00:00.0000,      54.184505,  2.312355140013183E+00,  9.624664017092681E-01, -1.932496817690077E-01, -4.393153981190051E-03,  9.449828192047425E-03, -1.606466394163883E-03,
2445725.500000000, A.D. 1984-Jan-26 00:00:00.0000,      54.184642,  2.289847881073196E+00,  1.009487552916618E+00, -2.012359725439694E-01, -4.609468393136467E-03,  9.357864590488773E-03, -1.587918520580033E-03,
2445730.500000000, A.D. 1984-Jan-31 00:00:00.0000,      54.184777,  2.266263343802436E+00,  1.056037385514879E+00, -2.091275564887899E-01, -4.824050159326142E-03,  9.261303771283881E-03, -1.568584362888950E-03,
2445735.500000000, A.D. 1984-Feb-05 00:00:00.0000,      54.184905,  2.241610419078512E+00,  1.102092959815893E+00, -2.169205128838358E-01, -5.036808152782768E-03,  9.160164507069607E-03, -1.548468239501435E-03,
2445740.500000000, A.D. 1984-Feb-10 00:00:00.0000,      54.185026,  2.215898454430272E+00,  1.147631433214417E+00, -2.246109431776782E-01, -5.247650839101111E-03,  9.054466864550840E-03, -1.527574700377778E-03,
2445745.500000000, A.D. 1984-Feb-15 00:00:00.0000,      54.185137,  2.189137256087039E+00,  1.192630066752395E+00, -2.321949721613922E-01, -5.456486271853682E-03,  8.944232242330792E-03, -1.505908533691127E-03,
2445750.500000000, A.D. 1984-Feb-20 00:00:00.0000,      54.185239,  2.161337091047086E+00,  1.237066231876227E+00, -2.396687491768001E-01, -5.663222089502931E-03,  8.829483410278069E-03, -1.483474772739149E-03,
2445755.500000000, A.D. 1984-Feb-25 00:00:00.0000,      54.185332,  2.132508689157594E+00,  1.280917417394706E+00, -2.470284493598768E-01, -5.867765513915283E-03,  8.710244550423241E-03, -1.460278703097449E-03,
2445760.500000000, A.D. 1984-Mar-01 00:00:00.0000,      54.185417,  2.102663245197842E+00,  1.324161236645254E+00, -2.542702749205178E-01, -6.070023350561176E-03,  8.586541299390281E-03, -1.436325870010335E-03,
2445765.500000000, A.D. 1984-Mar-06 00:00:00.0000,      54.185491,  2.071812420957057E+00,  1.366775434876211E+00, -2.613904564598549E-01, -6.269901990462334E-03,  8.458400792384212E-03, -1.411622086019867E-03,
2445770.500000000, A.D. 1984-Mar-11 00:00:00.0000,      54.185553,  2.039968347298190E+00,  1.408737896853026E+00, -2.683852543263554E-01, -6.467307413857598E-03,  8.325851708771939E-03, -1.386173438857624E-03,
2445775.500000000, A.D. 1984-Mar-16 00:00:00.0000,      54.185602,  2.007143626199226E+00,  1.450026654696109E+00, -2.752509600121262E-01, -6.662145195517126E-03,  8.188924319105138E-03, -1.359986299641108E-03,
2445780.500000000, A.D. 1984-Mar-21 00:00:00.0000,      54.185638,  1.973351332763510E+00,  1.490619895956388E+00, -2.819838975909545E-01, -6.854320511925658E-03,  8.047650533069979E-03, -1.333067331351244E-03,
2445785.500000000, A.D. 1984-Mar-26 00:00:00.0000,      54.185664,  1.938605017187363E+00,  1.530495971931743E+00, -2.885804251989598E-01, -7.043738151407887E-03,  7.902063947900983E-03, -1.305423497344858E-03,
2445790.500000000, A.D. 1984-Mar-31 00:00:00.0000,      54.185678,  1.902918706668017E+00,  1.569633406228729E+00, -2.950369365574528E-01, -7.230302527767069E-03,  7.752199898404324E-03, -1.277062069748137E-03,
2445795.500000000, A.D. 1984-Apr-05 00:00:00.0000,      54.185680,  1.866306907238008E+00,  1.608010903581391E+00, -3.013498625383140E-01, -7.413917695703015E-03,  7.598095509758755E-03, -1.247990638165930E-03,
2445800.500000000, A.D. 1984-Apr-10 00:00:00.0000,      54.185669,  1.828784605520311E+00,  1.645607358938612E+00, -3.075156727743662E-01, -7.594487367239750E-03,  7.439789751797618E-03, -1.218217118943313E-03,
2445805.500000000, A.D. 1984-Apr-15 00:00:00.0000,      54.185644,  1.790367270395678E+00,  1.682401866823807E+00, -3.135308773167381E-01, -7.771914930673290E-03,  7.277323493652821E-03, -1.187749764639190E-03,
2445810.500000000, A.D. 1984-Apr-20 00:00:00.0000,      54.185606,  1.751070854567122E+00,  1.718373730969525E+00, -3.193920283397037E-01, -7.946103472758384E-03,  7.110739559177204E-03, -1.156597173547365E-03,
2445815.500000000, A.D. 1984-Apr-25 00:00:00.0000,      54.185559,  1.710911796005858E+00,  1.753502474232034E+00, -3.250957218933974E-01, -8.116955803895128E-03,  6.940082783538891E-03, -1.124768299339969E-03,
2445820.500000000, A.D. 1984-Apr-30 00:00:00.0000,      54.185501,  1.669907019264276E+00,  1.787767848791822E+00, -3.306385997052105E-01, -8.284374486103271E-03,  6.765400070968131E-03, -1.092272460904909E-03,
2445825.500000000, A.D. 1984-May-05 00:00:00.0000,      54.185433,  1.628073936642160E+00,  1.821149846645310E+00, -3.360173510309045E-01, -8.448261863762760E-03,  6.586740453457697E-03, -1.059119352394021E-03,
2445830.500000000, A.D. 1984-May-10 00:00:00.0000,      54.185353,  1.585430449192161E+00,  1.853628710391889E+00, -3.412287145564537E-01, -8.608520097184425E-03,  6.404155150135968E-03, -1.025319053460177E-03,
2445835.500000000, A.D. 1984-May-15 00:00:00.0000,      54.185262,  1.541994947550043E+00,  1.885184944318758E+00, -3.462694803514162E-01, -8.765051199165774E-03,  6.217697626949522E-03, -9.908820396133449E-04,
2445840.500000000, A.D. 1984-May-20 00:00:00.0000,      54.185162,  1.497786312574132E+00,  1.915799325784121E+00, -3.511364918741285E-01, -8.917757074815208E-03,  6.027423656260558E-03, -9.558191925721926E-04,
2445845.500000000, A.D. 1984-May-25 00:00:00.0000,      54.185055,  1.452823915776589E+00,  1.945452916897465E+00, -3.558266480283138E-01, -9.066539565080385E-03,  5.833391376045707E-03, -9.201418104464171E-04,
2445850.500000000, A.D. 1984-May-30 00:00:00.0000,      54.184942,  1.407127619526735E+00,  1.974127076494655E+00, -3.603369052698576E-01, -9.211300494480214E-03,  5.635661348640466E-03, -8.838616176059250E-04,
2445855.500000000, A.D. 1984-Jun-04 00:00:00.0000,      54.184822,  1.360717777004335E+00,  2.001803472406129E+00, -3.646642797620219E-01, -9.351941723428655E-03,  5.434296619317252E-03, -8.469907741894205E-04,
